
NAVSTAR 63 (USA 203)    
1 34661U 09014A   25021.25674593  .00000072  00000+0  00000+0 0  9992
2 34661  54.6047 231.1931 0137889  59.6661 121.2329  2.00567808116012
WGS F2 (USA 204)        
1 34713U 09017A   25021.76366995  .00000087  00000+0  00000+0 0  9999
2 34713   0.0175  63.8388 0001360 263.2510 126.6933  1.00272468 57819
YAOGAN-6                
1 34839U 09021A   25021.86705242  .00067054  00000+0  58722-3 0  9991
2 34839  97.1941 356.7948 0013998  87.2280 273.0584 15.68555697877478
SES-7 (PROTOSTAR 2)     
1 34941U 09027A   25021.48791840 -.00000327  00000+0  00000+0 0  9991
2 34941   0.0117  36.7076 0002023 259.2176 109.0531  1.00271548 57492
MEASAT-3A               
1 35362U 09032A   25021.71249733 -.00000092  00000+0  00000+0 0  9999
2 35362   0.0286 296.2088 0002901  10.1035 231.4546  1.00272728 57101
GOES 14                 
1 35491U 09033A   25021.44499941 -.00000051  00000+0  00000+0 0  9996
2 35491   0.3534  90.5329 0001767 153.0681 289.5597  1.00275510  1469
FM-5                    
1 35493U 09034A   25021.60396709 -.00000181  00000+0  00000+0 0  9999
2 35493   0.0231 292.6754 0001887 237.6483  82.1547  1.00271288 56843
TERRESTAR-1             
1 35496U 09035A   25021.72987344 -.00000041  00000+0  00000+0 0  9992
2 35496   4.8082  48.3428 0003139 258.2892 326.4302  1.00271220 57021
COSMOS 2451             
1 35498U 09036A   25021.82889607  .00000019  00000+0  66764-4 0  9997
2 35498  82.4858  49.6431 0006035 234.9042 125.1471 12.40857073704279
COSMOS 2453             
1 35500U 09036C   25021.82907208  .00000017  00000+0  55257-4 0  9992
2 35500  82.4863  45.5594 0006908 190.0265 170.0677 12.41505584704648
DEIMOS-1                
1 35681U 09041A   25021.75264914  .00001602  00000+0  24970-3 0  9998
2 35681  97.6857 198.2142 0002502  65.0794 295.0676 14.74192582831509
DUBAISAT-1              
1 35682U 09041B   25021.83208849  .00003324  00000+0  52208-3 0  9991
2 35682  97.9318 158.5278 0009626 273.2608  86.7498 14.73222844829817
UK-DMC 2                
1 35683U 09041C   25021.73302842  .00002385  00000+0  36533-3 0  9998
2 35683  97.8071 166.9884 0001488  94.3453 265.7926 14.74564730831202
APRIZESAT 4             
1 35684U 09041D   25021.71829194  .00002299  00000+0  28845-3 0  9992
2 35684  98.2069  80.4443 0044479 176.3319 183.8228 14.82527758835594
NANOSAT 1B              
1 35685U 09041E   25021.24621708  .00003940  00000+0  40201-3 0  9996
2 35685  98.0907 120.9687 0053232  48.5791 311.9981 14.90200891838098
APRIZESAT 3             
1 35686U 09041F   25021.35067268  .00004422  00000+0  41052-3 0  9995
2 35686  98.1340 148.3483 0064306 316.3283  43.2856 14.93396611839901
ASIASAT 5               
1 35696U 09042A   25021.48635455 -.00000288  00000+0  00000+0 0  9991
2 35696   0.0261  85.1123 0001534 236.7437  74.8596  1.00263072 56578
NAVSTAR 64 (USA 206)    
1 35752U 09043A   25021.59515753 -.00000060  00000+0  00000+0 0  9993
2 35752  55.8513  47.6167 0053450  75.2370 296.5920  2.00556694113109
JCSAT-12 (JCSAT-RA)     
1 35755U 09044A   25021.54494000 -.00000309  00000+0  00000+0 0  9999
2 35755   0.0436  88.8514 0001643 306.0728  54.4242  1.00271955 56488
OPTUS D3                
1 35756U 09044B   25021.58959507 -.00000129  00000+0  00000+0 0  9992
2 35756   0.5735  85.9619 0005070 234.3776 169.0896  1.00272315 56438
NIMIQ 5                 
1 35873U 09050A   25021.45194986 -.00000238  00000+0  00000+0 0  9998
2 35873   0.0612 263.0701 0002529  34.2929 273.6849  1.00273051 56215
OCEANSAT-2              
1 35931U 09051A   25021.84266499 -.00000079  00000+0 -27929-4 0  9994
2 35931  98.2387  55.1712 0016120 236.5024 123.4602 13.99550033807802
SWISSCUBE               
1 35932U 09051B   25021.60637081  .00003127  00000+0  65238-3 0  9997
2 35932  98.4459 275.1752 0007439  12.5013 347.6370 14.60643422814428
BEESAT-1                
1 35933U 09051C   25021.66626725  .00002651  00000+0  56044-3 0  9993
2 35933  98.4390 275.8282 0006078  26.7445 333.4067 14.60160480814572
ITUPSAT1                
1 35935U 09051E   25021.22782054  .00002548  00000+0  55262-3 0  9991
2 35935  98.4489 275.0313 0008444  32.0745 328.0967 14.59003781814041
AMAZONAS 2              
1 35942U 09054A   25021.45438252 -.00000264  00000+0  00000+0 0  9995
2 35942   0.4872  91.2591 0003340 214.1573 278.4150  1.00272753 56056
COMSATBW-1              
1 35943U 09054B   25021.12171699  .00000042  00000+0  00000+0 0  9992
2 35943   0.0722  94.7494 0002950 210.7282 282.0768  1.00273323 56164
WORLDVIEW-2 (WV-2)      
1 35946U 09055A   25021.84455773  .00000456  00000+0  16820-3 0  9993
2 35946  98.4870  97.4917 0003174 313.7236  46.3687 14.37082677802292
DMSP 5D-3 F18 (USA 210) 
1 35951U 09057A   25021.86804620  .00000616  00000+0  34443-3 0  9991
2 35951  98.8432   0.6385 0010063 265.0405  94.9619 14.14475605787279
NSS-12                  
1 36032U 09058A   25021.47775339  .00000090  00000+0  00000+0 0  9998
2 36032   0.1061 277.1477 0003502  19.2461  53.6748  1.00275585 55783
THOR 6                  
1 36033U 09058B   25021.32336667  .00000008  00000+0  00000+0 0  9999
2 36033   0.0153 118.1624 0002317 216.0176 262.2963  1.00272499 55874
SMOS                    
1 36036U 09059A   25021.48862769  .00000912  00000+0  30465-3 0  9993
2 36036  98.4393 211.2596 0001099  76.3777 283.7533 14.39790792799825
PROBA-2                 
1 36037U 09059B   25021.47408264  .00000878  00000+0  21688-3 0  9997
2 36037  98.2314 207.3441 0014260  63.2894 296.9761 14.54375104807137
SJ-11-01                
1 36088U 09061A   25021.83611834  .00001835  00000+0  36924-3 0  9998
2 36088  97.9565  14.2864 0010733 188.0398 239.5528 14.62682904809793
COSMOS 2455             
1 36095U 09063A   25021.54846267  .00000015  00000+0  64811-4 0  9992
2 36095  67.1476  57.1372 0004213 244.7956 115.2692 13.96975288773852
INTELSAT 14 (IS-14)     
1 36097U 09064A   25021.45751022 -.00000255  00000+0  00000+0 0  9991
2 36097   0.0076  29.3558 0002387 278.5377 292.8633  1.00271688 55478
EUTELSAT 36B            
1 36101U 09065A   25021.47618955  .00000131  00000+0  00000+0 0  9999
2 36101   0.0614   8.3910 0006471 308.1452  26.4378  1.00272115 55577
INTELSAT 15 (IS-15)     
1 36106U 09067A   25021.12606102 -.00000167  00000+0  00000+0 0  9999
2 36106   0.0330 257.4452 0002265  56.5202 297.2825  1.00271303 36098
WGS F3 (USA 211)        
1 36108U 09068A   25021.61113644  .00000070  00000+0  00000+0 0  9992
2 36108   0.1728  89.2217 0000194 210.9646 220.8284  1.00272291 41475
YAOGAN-7                
1 36110U 09069A   25021.67858599  .00001652  00000+0  24062-3 0  9992
2 36110  98.0760 263.9137 0023757 245.7546 114.1182 14.77055213814131
COSMOS 2456 [GLONASS-M] 
1 36111U 09070A   25021.39886698 -.00000032  00000+0  00000+0 0  9999
2 36111  64.7181  88.4723 0004712 296.8285  90.5376  2.13103636117528
COSMOS 2457 [GLONASS-M] 
1 36112U 09070B   25021.25402219 -.00000032  00000+0  00000+0 0  9998
2 36112  64.7029  88.3313 0004056 178.2286 230.1462  2.13101079117526
YAOGAN-8                
1 36121U 09072A   25021.70587747  .00000138  00000+0  55575-3 0  9997
2 36121 100.2758 286.8536 0021517  35.6483 324.6056 13.05053932722032
XIWANG-1 (HOPE-1)       
1 36122U 09072B   25021.46185426  .00000006  00000+0  13064-3 0  9990
2 36122 100.3295 340.3029 0007202 327.9430  32.1245 13.16417561725675
DIRECTV 12              
1 36131U 09075A   25021.47966057 -.00000085  00000+0  00000+0 0  9991
2 36131   0.0144 233.8795 0000622 107.3357 209.8192  1.00273681 41428
BEIDOU-2 G1             
1 36287U 10001A   25021.49434756 -.00000263  00000+0  00000+0 0  9990
2 36287   3.1029  60.1747 0005248 274.9658 104.3753  1.00272861 55042
RADUGA-1M 2             
1 36358U 10002A   25021.48331375 -.00000169  00000+0  00000+0 0  9997
2 36358   2.2851  85.5203 0004247 207.8135  86.7080  1.00283176 44950
SDO                     
1 36395U 10005A   25021.20516787 -.00000075  00000+0  00000+0 0  9999
2 36395  33.5767  94.1970 0001603 198.0800 160.1191  1.00269249 54927
INTELSAT 16 (IS-16)     
1 36397U 10006A   25021.45134170 -.00000226  00000+0  00000+0 0  9999
2 36397   0.0117 341.2467 0001786 319.4898 266.5884  1.00270620 54523
COSMOS 2460 [GLONASS-M] 
1 36402U 10007C   25021.28179885 -.00000072  00000+0  00000+0 0  9999
2 36402  65.6983 331.7360 0002414 312.6644 111.7988  2.13106254115820
EWS-G2 (GOES 15)        
1 36411U 10008A   25021.21091019  .00000054  00000+0  00000+0 0  9994
2 36411   0.0453 252.0542 0005668  17.2946 348.8859  1.00274956 54506
YAOGAN-9 01A            
1 36413U 10009A   25021.54335870  .00000127  00000+0  17539-3 0  9999
2 36413  63.3691 241.3316 0493828  17.9157 343.8605 13.45539190731124
YAOGAN-9 01B            
1 36414U 10009B   25021.89788283  .00000103  00000+0  15556-3 0  9999
2 36414  63.3709 240.0333 0494497  17.1385 344.5688 13.45549980731338
YAOGAN-9 01C            
1 36415U 10009C   25021.89642520  .00000119  00000+0  16790-3 0  9991
2 36415  63.3705 240.5880 0495249  17.4540 344.2845 13.45548467731307
ECHOSTAR 14             
1 36499U 10010A   25021.66666354  .00000019  00000+0  00000+0 0  9993
2 36499   0.0112  39.4927 0001921 263.1754 299.6828  1.00271178 54406
CRYOSAT 2               
1 36508U 10013A   25021.62595108  .00000631  00000+0  15592-3 0  9997
2 36508  92.0185 153.8180 0000856 104.3153 255.8149 14.51909218783856
SES-1                   
1 36516U 10016A   25021.47966057 -.00000096  00000+0  00000+0 0  9997
2 36516   0.0479 278.3398 0002272  17.5792 256.8348  1.00272407 53903
COSMOS 2463             
1 36519U 10017A   25021.61767456  .00000087  00000+0  78977-4 0  9991
2 36519  82.9590 265.5711 0037350 108.8597 315.3955 13.71608377737801
